[{"OBJECT_ID":"2014-006A","OBJECT_NAME":"ABS 2","NORAD_CAT_ID":"39508","OBJECT_TYPE":"PAYLOAD","PERIOD":"1436.089","INCLINATION":"0.0093","APOGEE":"35798.740","PERIGEE":"35774.158","ECCENTRICITY":"0.0002915","MEAN_MOTION":"1.00272312","TLE_LINE1":"1 39508U 14006A   16238.86262320 -.00000114 +00000-0 +00000-0 0  9992","TLE_LINE2":"2 39508 000.0093 274.6408 0002915 241.2079 204.1584 01.00272312009418","LAUNCH_DATE":"2014-02-06","LAUNCH_SITE":"FRENCH GUIANA","OWNER":"PEOPLES REPUBLIC OF CHINA","ORBIT_TYPE":"Geosynchronous","OPERATIONAL_STATUS":"Partially operational","satInfo":{"lng":75.40935463316744,"lat":-1.0740580012643768,"elevation":-9.622360635336914,"azimuth":239.59064536683255,"range":42754.78322041637,"height":35782.52400150199,"velocity":3.0749791777324575},"x":290,"y":-72,"dx":0.7746221799655674,"dy":2.975812060899272},{"OBJECT_ID":"2014-006B","OBJECT_NAME":"ATHENA-FIDUS","NORAD_CAT_ID":"39509","OBJECT_TYPE":"PAYLOAD","PERIOD":"1436.081","INCLINATION":"0.0189","APOGEE":"35790.027","PERIGEE":"35782.572","ECCENTRICITY":"8.84e-05","MEAN_MOTION":"1.00272845","TLE_LINE1":"1 39509U 14006B   16238.96537634  .00000126  00000-0  00000+0 0  9998","TLE_LINE2":"2 39509   0.0189 122.1982 0000884  88.7274 149.0691  1.00272845  9588","LAUNCH_DATE":"2014-02-06","LAUNCH_SITE":"FRENCH GUIANA","OWNER":"FRANCE/ITALY","ORBIT_TYPE":"Geosynchronous","OPERATIONAL_STATUS":"Operational","satInfo":{"lng":96.80847733474701,"lat":0.7475481510834842,"elevation":-7.846375234782368,"azimuth":218.191522665253,"range":42542.44742684225,"height":35769.597591756785,"velocity":3.0752846106664284},"x":298,"y":34,"dx":-0.3645777079403652,"dy":3.053597637455648},{"OBJECT_ID":"2014-007A","OBJECT_NAME":"TURKSAT 4A","NORAD_CAT_ID":"39522","OBJECT_TYPE":"PAYLOAD","PERIOD":"1436.043","INCLINATION":"0.0737","APOGEE":"35797.748","PERIGEE":"35773.335","ECCENTRICITY":"0.0002895","MEAN_MOTION":"1.00275548","TLE_LINE1":"1 39522U 14007A   16238.95371296  .00000118  00000-0  00000+0 0  9994","TLE_LINE2":"2 39522   0.0737 277.3546 0002895 288.9312 153.6927  1.00275548  9296","LAUNCH_DATE":"2014-02-14","LAUNCH_SITE":"TYURATAM MISSILE AND SPACE COMPLEX","OWNER":"TURKEY","ORBIT_TYPE":"Geosynchronous","OPERATIONAL_STATUS":"Operational","satInfo":{"lng":100.95930173824108,"lat":-1.73296202552031,"elevation":-10.265004640978594,"azimuth":214.0406982617589,"range":42820.28372122487,"height":35776.028625818246,"velocity":3.0750253493513893},"x":294,"y":54,"dx":-0.584598232703583,"dy":3.018944485324876},{"OBJECT_ID":"2014-010A","OBJECT_NAME":"EXPRESS AT1","NORAD_CAT_ID":"39612","OBJECT_TYPE":"PAYLOAD","PERIOD":"1436.100","INCLINATION":"0.0442","APOGEE":"35787.289","PERIGEE":"35786.058","ECCENTRICITY":"1.46e-05","MEAN_MOTION":"1.0027151","TLE_LINE1":"1 39612U 14010A   16238.93795844 +.00000051 +00000-0 +00000-0 0  9992","TLE_LINE2":"2 39612 000.0442 286.0623 0000146 242.9367 199.2780 01.00271510009130","LAUNCH_DATE":"2014-03-15","LAUNCH_SITE":"TYURATAM MISSILE AND SPACE COMPLEX","OWNER":"COMMONWEALTH OF INDEPENDENT STATES","ORBIT_TYPE":"Geosynchronous","OPERATIONAL_STATUS":"Operational","satInfo":{"lng":94.02113696852082,"lat":-1.2687785977628832,"elevation":-9.811543289690809,"azimuth":220.97886303147914,"range":42778.34422911516,"height":35784.84038666147,"velocity":3.0747639738286265},"x":299,"y":20,"dx":-0.21561622490477025,"dy":3.067194669125555},{"OBJECT_ID":"2014-010B","OBJECT_NAME":"EXPRESS AT2","NORAD_CAT_ID":"39613","OBJECT_TYPE":"PAYLOAD","PERIOD":"1436.111","INCLINATION":"0.0444","APOGEE":"35790.045","PERIGEE":"35783.737","ECCENTRICITY":"7.48e-05","MEAN_MOTION":"1.00270734","TLE_LINE1":"1 39613U 14010B   16238.85035899 -.00000309 +00000-0 +00000-0 0  9998","TLE_LINE2":"2 39613 000.0444 285.1424 0000748 347.2377 148.1129 01.00270734008967","LAUNCH_DATE":"2014-03-15","LAUNCH_SITE":"TYURATAM MISSILE AND SPACE COMPLEX","OWNER":"COMMONWEALTH OF INDEPENDENT STATES","ORBIT_TYPE":"Geosynchronous","OPERATIONAL_STATUS":"Operational","satInfo":{"lng":124.57353253167933,"lat":-2.0453183410998195,"elevation":-10.569661847851053,"azimuth":190.42646746832065,"range":42849.39796039703,"height":35771.04429723453,"velocity":3.0751742722490514},"x":246,"y":162,"dx":-1.745048974785881,"dy":2.5320941689244556},{"OBJECT_ID":"2014-010C","OBJECT_NAME":"BREEZE-M R/B","NORAD_CAT_ID":"39614","OBJECT_TYPE":"ROCKET BODY","PERIOD":"1589.752","INCLINATION":"1.8952","APOGEE":"41848.963","PERIGEE":"35637.003","ECCENTRICITY":"0.0688365","MEAN_MOTION":"0.90580138","TLE_LINE1":"1 39614U 14010C   16237.60698173 -.00000164 +00000-0 +00000-0 0  9990","TLE_LINE2":"2 39614 001.8952 079.0229 0688365 341.6705 016.4012 00.90580138008041","LAUNCH_DATE":"2014-03-15","LAUNCH_SITE":"TYURATAM MISSILE AND SPACE COMPLEX","OWNER":"COMMONWEALTH OF INDEPENDENT STATES","ORBIT_TYPE":"Unclassified","OPERATIONAL_STATUS":"N/A, derelict rocket body","satInfo":{"lng":26.286540983917835,"lat":-0.6803552375280698,"elevation":-9.255198672074386,"azimuth":288.7134590160822,"range":42629.88585129376,"height":35699.74701474427,"velocity":3.1799383552987663},"x":131,"y":-256,"dx":2.8511024719535,"dy":1.4082693769023267},{"OBJECT_ID":"2014-011A","OBJECT_NAME":"AMAZONAS 4A","NORAD_CAT_ID":"39616","OBJECT_TYPE":"PAYLOAD","PERIOD":"1436.181","INCLINATION":"0.0621","APOGEE":"35804.387","PERIGEE":"35772.129","ECCENTRICITY":"0.0003825","MEAN_MOTION":"1.00265858","TLE_LINE1":"1 39616U 14011A   16238.45597898  .00000000  00000-0  10000-3 0  9991","TLE_LINE2":"2 39616   0.0621  64.5580 0003825  49.0410 323.7054  1.00265858  8085","LAUNCH_DATE":"2014-03-22","LAUNCH_SITE":"FRENCH GUIANA","OWNER":"SPAIN","ORBIT_TYPE":"Geosynchronous","OPERATIONAL_STATUS":"Partially operational","satInfo":{"lng":-73.46203764832862,"lat":-2.1016898246553497,"elevation":-10.615536159158124,"azimuth":28.462037648328618,"range":42900.02754893922,"height":35816.029956362814,"velocity":3.073046893358614},"x":-292,"y":-82,"dx":0.8747445363650856,"dy":-2.945919076431065},{"OBJECT_ID":"2014-011B","OBJECT_NAME":"ASTRA 5B","NORAD_CAT_ID":"39617","OBJECT_TYPE":"PAYLOAD","PERIOD":"1436.052","INCLINATION":"0.0479","APOGEE":"35797.284","PERIGEE":"35774.187","ECCENTRICITY":"0.0002739","MEAN_MOTION":"1.00274857","TLE_LINE1":"1 39617U 14011B   16239.11160700  .00000127  00000-0  00000+0 0  9999","TLE_LINE2":"2 39617   0.0479 310.5598 0002739 223.3219 232.6176  1.00274857  8955","LAUNCH_DATE":"2014-03-22","LAUNCH_SITE":"FRENCH GUIANA","OWNER":"SOCIÉTÉ EUROPÉENNE DES SATELLITES","ORBIT_TYPE":"Geosynchronous","OPERATIONAL_STATUS":"Operational","satInfo":{"lng":84.7425054254324,"lat":-0.02400319975159355,"elevation":-8.602614568071912,"azimuth":230.2574945745676,"range":42617.58136022122,"height":35759.98135441759,"velocity":3.075733851591319},"x":298,"y":-27,"dx":0.2818352571956688,"dy":3.0627940860636094},{"OBJECT_ID":"2014-023B","OBJECT_NAME":"KAZSAT 3","NORAD_CAT_ID":"39728","OBJECT_TYPE":"PAYLOAD","PERIOD":"1436.069","INCLINATION":"0.0155","APOGEE":"35790.285","PERIGEE":"35781.818","ECCENTRICITY":"0.0001004","MEAN_MOTION":"1.00273728","TLE_LINE1":"1 39728U 14023B   16238.90810423  .00000033  00000-0  00000+0 0  9991","TLE_LINE2":"2 39728   0.0155 106.6943 0001004 146.7204 106.5677  1.00273728  8527","LAUNCH_DATE":"2014-04-28","LAUNCH_SITE":"TYURATAM MISSILE AND SPACE COMPLEX","OWNER":"KAZAKHSTAN","ORBIT_TYPE":"Geosynchronous","OPERATIONAL_STATUS":"Operational","satInfo":{"lng":91.82881774447205,"lat":1.2058074460939439,"elevation":-7.393535213661854,"azimuth":223.17118225552795,"range":42512.32511696403,"height":35790.055851934165,"velocity":3.0744412011331326},"x":300,"y":9,"dx":-0.09811609142111366,"dy":3.072875189757824},{"OBJECT_ID":"2014-030A","OBJECT_NAME":"EUTE 3B","NORAD_CAT_ID":"39773","OBJECT_TYPE":"PAYLOAD","PERIOD":"1436.091","INCLINATION":"0.0782","APOGEE":"35795.347","PERIGEE":"35777.630","ECCENTRICITY":"0.0002101","MEAN_MOTION":"1.0027217","TLE_LINE1":"1 39773U 14030A   16238.14216155 -.00000006  00000-0  00000+0 0  9998","TLE_LINE2":"2 39773   0.0782 319.8512 0002101 196.3219 231.9275  1.00272170  8290","LAUNCH_DATE":"2014-05-26","LAUNCH_SITE":"SEA LAUNCH","OWNER":"EUROPEAN TELECOMMUNICATIONS SATELLITE ORGANIZATION (EUTELSAT)","ORBIT_TYPE":"Geosynchronous","OPERATIONAL_STATUS":"Operational","satInfo":{"lng":9.975533128075655,"lat":1.5180951041307102,"elevation":-7.085185765345487,"azimuth":305.02446687192435,"range":42489.05982791179,"height":35801.260190805915,"velocity":3.0739398655203973},"x":50,"y":-282,"dx":3.027467476294935,"dy":0.5324912927099701},{"OBJECT_ID":"2014-030B","OBJECT_NAME":"BLOCK DM-SL R/B","NORAD_CAT_ID":"39774","OBJECT_TYPE":"ROCKET BODY","PERIOD":"629.023","INCLINATION":"0.1738","APOGEE":"35478.273","PERIGEE":"402.580","ECCENTRICITY":"0.7211712","MEAN_MOTION":"2.28926429","TLE_LINE1":"1 39774U 14030B   16238.79611352  .00000061  00000-0  55544-3 0  9995","TLE_LINE2":"2 39774   0.1738 229.3556 7211712 320.2904 139.8343  2.28926429 18817","LAUNCH_DATE":"2014-05-26","LAUNCH_SITE":"SEA LAUNCH","OWNER":"SEA LAUNCH DEMO","ORBIT_TYPE":"Highly Elliptical Orbit","OPERATIONAL_STATUS":"N/A, derelict rocket body","satInfo":{"lng":66.18194040280576,"lat":-0.3397773024950428,"elevation":-9.650974006964775,"azimuth":248.81805959719426,"range":39288.555078092184,"height":32355.058432477523,"velocity":2.041456544182947},"x":248,"y":-105,"dx":0.8244088905663443,"dy":1.8675906411584282}]